CCSDS_OMM_VERS = 2.0
CREATION_DATE  = 
ORIGINATOR     = 

OBJECT_NAME    = STARLINK-35385
OBJECT_ID      = 2025-224AA
CENTER_NAME    = EARTH
REF_FRAME      = TEME
TIME_SYSTEM    = UTC
MEAN_ELEMENT_THEORY = SGP/SGP4

EPOCH          = 2025-11-05T02:22:24.302496
MEAN_MOTION    = 15.49316701
ECCENTRICITY   = .00017946
INCLINATION    = 53.1603
RA_OF_ASC_NODE = 231.1288
ARG_OF_PERICENTER = 57.5296
MEAN_ANOMALY   = 302.5886

EPHEMERIS_TYPE = 0
CLASSIFICATION_TYPE = U
NORAD_CAT_ID   = 65906
ELEMENT_SET_NO = 999
REV_AT_EPOCH   = 576
BSTAR          = .19903833E-2
MEAN_MOTION_DOT = .111878E-2
MEAN_MOTION_DDOT = 0

CCSDS_OMM_VERS = 2.0
CREATION_DATE  = 
ORIGINATOR     = 

OBJECT_NAME    = STARLINK-35347
OBJECT_ID      = 2025-224AB
CENTER_NAME    = EARTH
REF_FRAME      = TEME
TIME_SYSTEM    = UTC
MEAN_ELEMENT_THEORY = SGP/SGP4

EPOCH          = 2025-11-05T02:21:54.215424
MEAN_MOTION    = 15.49335007
ECCENTRICITY   = .00013208
INCLINATION    = 53.1602
RA_OF_ASC_NODE = 231.1263
ARG_OF_PERICENTER = 138.3814
MEAN_ANOMALY   = 221.7296

EPHEMERIS_TYPE = 0
CLASSIFICATION_TYPE = U
NORAD_CAT_ID   = 65907
ELEMENT_SET_NO = 999
REV_AT_EPOCH   = 576
BSTAR          = .11036816E-2
MEAN_MOTION_DOT = .61475E-3
MEAN_MOTION_DDOT = 0

CCSDS_OMM_VERS = 2.0
CREATION_DATE  = 
ORIGINATOR     = 

OBJECT_NAME    = STARLINK-35329
OBJECT_ID      = 2025-224AC
CENTER_NAME    = EARTH
REF_FRAME      = TEME
TIME_SYSTEM    = UTC
MEAN_ELEMENT_THEORY = SGP/SGP4

EPOCH          = 2025-11-05T00:50:00.284064
MEAN_MOTION    = 15.49332417
ECCENTRICITY   = .00012874
INCLINATION    = 53.1612
RA_OF_ASC_NODE = 231.4397
ARG_OF_PERICENTER = 102.5853
MEAN_ANOMALY   = 257.5300

EPHEMERIS_TYPE = 0
CLASSIFICATION_TYPE = U
NORAD_CAT_ID   = 65908
ELEMENT_SET_NO = 999
REV_AT_EPOCH   = 576
BSTAR          = .11225226E-2
MEAN_MOTION_DOT = .62535E-3
MEAN_MOTION_DDOT = 0

CCSDS_OMM_VERS = 2.0
CREATION_DATE  = 
ORIGINATOR     = 

OBJECT_NAME    = STARLINK-35387
OBJECT_ID      = 2025-224AD
CENTER_NAME    = EARTH
REF_FRAME      = TEME
TIME_SYSTEM    = UTC
MEAN_ELEMENT_THEORY = SGP/SGP4

EPOCH          = 2025-11-05T02:21:24.937920
MEAN_MOTION    = 15.49324717
ECCENTRICITY   = .00019185
INCLINATION    = 53.1613
RA_OF_ASC_NODE = 231.1242
ARG_OF_PERICENTER = 54.7983
MEAN_ANOMALY   = 305.3205

EPHEMERIS_TYPE = 0
CLASSIFICATION_TYPE = U
NORAD_CAT_ID   = 65909
ELEMENT_SET_NO = 999
REV_AT_EPOCH   = 573
BSTAR          = .15228782E-2
MEAN_MOTION_DOT = .85226E-3
MEAN_MOTION_DDOT = 0

CCSDS_OMM_VERS = 2.0
CREATION_DATE  = 
ORIGINATOR     = 

OBJECT_NAME    = STARLINK-35523
OBJECT_ID      = 2025-225A
CENTER_NAME    = EARTH
REF_FRAME      = TEME
TIME_SYSTEM    = UTC
MEAN_ELEMENT_THEORY = SGP/SGP4

EPOCH          = 2025-11-05T06:00:00.999648
MEAN_MOTION    = 15.49219301
ECCENTRICITY   = .00012033
INCLINATION    = 53.1614
RA_OF_ASC_NODE = 25.6105
ARG_OF_PERICENTER = 115.1880
MEAN_ANOMALY   = 71.9150

EPHEMERIS_TYPE = 0
CLASSIFICATION_TYPE = U
NORAD_CAT_ID   = 65910
ELEMENT_SET_NO = 999
REV_AT_EPOCH   = 539
BSTAR          = .13984949E-2
MEAN_MOTION_DOT = .77862E-3
MEAN_MOTION_DDOT = 0

CCSDS_OMM_VERS = 2.0
CREATION_DATE  = 
ORIGINATOR     = 

OBJECT_NAME    = STARLINK-35160
OBJECT_ID      = 2025-225B
CENTER_NAME    = EARTH
REF_FRAME      = TEME
TIME_SYSTEM    = UTC
MEAN_ELEMENT_THEORY = SGP/SGP4

EPOCH          = 2025-11-05T06:00:00.999648
MEAN_MOTION    = 15.49335661
ECCENTRICITY   = .00011014
INCLINATION    = 53.1612
RA_OF_ASC_NODE = 25.6072
ARG_OF_PERICENTER = 96.6420
MEAN_ANOMALY   = 92.3794

EPHEMERIS_TYPE = 0
CLASSIFICATION_TYPE = U
NORAD_CAT_ID   = 65911
ELEMENT_SET_NO = 999
REV_AT_EPOCH   = 534
BSTAR          = -.10216851E-2
MEAN_MOTION_DOT = -.56911E-3
MEAN_MOTION_DDOT = 0

CCSDS_OMM_VERS = 2.0
CREATION_DATE  = 
ORIGINATOR     = 

OBJECT_NAME    = STARLINK-35508
OBJECT_ID      = 2025-225C
CENTER_NAME    = EARTH
REF_FRAME      = TEME
TIME_SYSTEM    = UTC
MEAN_ELEMENT_THEORY = SGP/SGP4

EPOCH          = 2025-11-05T06:00:00.999648
MEAN_MOTION    = 15.49334945
ECCENTRICITY   = .000111
INCLINATION    = 53.1615
RA_OF_ASC_NODE = 25.6019
ARG_OF_PERICENTER = 94.7384
MEAN_ANOMALY   = 96.1997

EPHEMERIS_TYPE = 0
CLASSIFICATION_TYPE = U
NORAD_CAT_ID   = 65912
ELEMENT_SET_NO = 999
REV_AT_EPOCH   = 534
BSTAR          = -.10043171E-2
MEAN_MOTION_DOT = -.55956E-3
MEAN_MOTION_DDOT = 0

CCSDS_OMM_VERS = 2.0
CREATION_DATE  = 
ORIGINATOR     = 

OBJECT_NAME    = STARLINK-35472
OBJECT_ID      = 2025-225D
CENTER_NAME    = EARTH
REF_FRAME      = TEME
TIME_SYSTEM    = UTC
MEAN_ELEMENT_THEORY = SGP/SGP4

EPOCH          = 2025-11-05T06:00:00.999648
MEAN_MOTION    = 15.49342787
ECCENTRICITY   = .0001071
INCLINATION    = 53.1615
RA_OF_ASC_NODE = 25.5982
ARG_OF_PERICENTER = 84.8536
MEAN_ANOMALY   = 108.0030

EPHEMERIS_TYPE = 0
CLASSIFICATION_TYPE = U
NORAD_CAT_ID   = 65913
ELEMENT_SET_NO = 999
REV_AT_EPOCH   = 538
BSTAR          = -.1340221E-2
MEAN_MOTION_DOT = -.74368E-3
MEAN_MOTION_DDOT = 0

CCSDS_OMM_VERS = 2.0
CREATION_DATE  = 
ORIGINATOR     = 

OBJECT_NAME    = STARLINK-35524
OBJECT_ID      = 2025-225E
CENTER_NAME    = EARTH
REF_FRAME      = TEME
TIME_SYSTEM    = UTC
MEAN_ELEMENT_THEORY = SGP/SGP4

EPOCH          = 2025-11-05T06:00:00.999648
MEAN_MOTION    = 15.49333345
ECCENTRICITY   = .00011291
INCLINATION    = 53.1612
RA_OF_ASC_NODE = 25.5944
ARG_OF_PERICENTER = 95.2993
MEAN_ANOMALY   = 99.4759

EPHEMERIS_TYPE = 0
CLASSIFICATION_TYPE = U
NORAD_CAT_ID   = 65914
ELEMENT_SET_NO = 999
REV_AT_EPOCH   = 539
BSTAR          = -.95632589E-3
MEAN_MOTION_DOT = -.53319E-3
MEAN_MOTION_DDOT = 0

CCSDS_OMM_VERS = 2.0
CREATION_DATE  = 
ORIGINATOR     = 

OBJECT_NAME    = STARLINK-35539
OBJECT_ID      = 2025-225F
CENTER_NAME    = EARTH
REF_FRAME      = TEME
TIME_SYSTEM    = UTC
MEAN_ELEMENT_THEORY = SGP/SGP4

EPOCH          = 2025-11-05T05:07:15.912768
MEAN_MOTION    = 15.39642591
ECCENTRICITY   = .00016857
INCLINATION    = 53.1609
RA_OF_ASC_NODE = 26.4721
ARG_OF_PERICENTER = 69.2559
MEAN_ANOMALY   = 290.8626

EPHEMERIS_TYPE = 0
CLASSIFICATION_TYPE = U
NORAD_CAT_ID   = 65915
ELEMENT_SET_NO = 999
REV_AT_EPOCH   = 531
BSTAR          = .1397163E-2
MEAN_MOTION_DOT = .55939E-3
MEAN_MOTION_DDOT = 0

CCSDS_OMM_VERS = 2.0
CREATION_DATE  = 
ORIGINATOR     = 

OBJECT_NAME    = STARLINK-35521
OBJECT_ID      = 2025-225G
CENTER_NAME    = EARTH
REF_FRAME      = TEME
TIME_SYSTEM    = UTC
MEAN_ELEMENT_THEORY = SGP/SGP4

EPOCH          = 2025-11-05T05:08:47.950368
MEAN_MOTION    = 15.49338504
ECCENTRICITY   = .00011862
INCLINATION    = 53.1612
RA_OF_ASC_NODE = 25.7565
ARG_OF_PERICENTER = 59.9161
MEAN_ANOMALY   = 300.1965

EPHEMERIS_TYPE = 0
CLASSIFICATION_TYPE = U
NORAD_CAT_ID   = 65916
ELEMENT_SET_NO = 999
REV_AT_EPOCH   = 532
BSTAR          = .22441336E-2
MEAN_MOTION_DOT = .126533E-2
MEAN_MOTION_DDOT = 0

CCSDS_OMM_VERS = 2.0
CREATION_DATE  = 
ORIGINATOR     = 

OBJECT_NAME    = STARLINK-35478
OBJECT_ID      = 2025-225H
CENTER_NAME    = EARTH
REF_FRAME      = TEME
TIME_SYSTEM    = UTC
MEAN_ELEMENT_THEORY = SGP/SGP4

EPOCH          = 2025-11-05T06:00:00.999648
MEAN_MOTION    = 15.49255454
ECCENTRICITY   = .00010811
INCLINATION    = 53.1614
RA_OF_ASC_NODE = 25.5776
ARG_OF_PERICENTER = 92.5288
MEAN_ANOMALY   = 109.9339

EPHEMERIS_TYPE = 0
CLASSIFICATION_TYPE = U
NORAD_CAT_ID   = 65917
ELEMENT_SET_NO = 999
REV_AT_EPOCH   = 534
BSTAR          = .15139904E-2
MEAN_MOTION_DOT = .84509E-3
MEAN_MOTION_DDOT = 0

