STARLINK-35385          
1 65906U 25224AA  25309.09889239  .00111878  00000+0  19904-2 0  9998
2 65906  53.1603 231.1288 0001794  57.5296 302.5886 15.49316701  5763
STARLINK-35347          
1 65907U 25224AB  25309.09854416  .00061475  00000+0  11037-2 0  9994
2 65907  53.1602 231.1263 0001320 138.3814 221.7296 15.49335007  5762
STARLINK-35329          
1 65908U 25224AC  25309.03472551  .00062535  00000+0  11225-2 0  9992
2 65908  53.1612 231.4397 0001287 102.5853 257.5300 15.49332417  5768
STARLINK-35387          
1 65909U 25224AD  25309.09820530  .00085226  00000+0  15229-2 0  9993
2 65909  53.1613 231.1242 0001918  54.7983 305.3205 15.49324717  5736
STARLINK-35523          
1 65910U 25225A   25309.25001157  .00077862  00000+0  13985-2 0  9994
2 65910  53.1614  25.6105 0001203 115.1880  71.9150 15.49219301  5397
STARLINK-35160          
1 65911U 25225B   25309.25001157 -.00056911  00000+0 -10217-2 0  9994
2 65911  53.1612  25.6072 0001101  96.6420  92.3794 15.49335661  5343
STARLINK-35508          
1 65912U 25225C   25309.25001157 -.00055956  00000+0 -10043-2 0  9990
2 65912  53.1615  25.6019 0001110  94.7384  96.1997 15.49334945  5347
STARLINK-35472          
1 65913U 25225D   25309.25001157 -.00074368  00000+0 -13402-2 0  9991
2 65913  53.1615  25.5982 0001071  84.8536 108.0030 15.49342787  5389
STARLINK-35524          
1 65914U 25225E   25309.25001157 -.00053319  00000+0 -95633-3 0  9992
2 65914  53.1612  25.5944 0001129  95.2993  99.4759 15.49333345  5394
STARLINK-35539          
1 65915U 25225F   25309.21337862  .00055939  00000+0  13972-2 0  9997
2 65915  53.1609  26.4721 0001685  69.2559 290.8626 15.39642591  5317
STARLINK-35521          
1 65916U 25225G   25309.21444387  .00126533  00000+0  22441-2 0  9999
2 65916  53.1612  25.7565 0001186  59.9161 300.1965 15.49338504  5320
STARLINK-35478          
1 65917U 25225H   25309.25001157  .00084509  00000+0  15140-2 0  9992
2 65917  53.1614  25.5776 0001081  92.5288 109.9339 15.49255454  5346
